IRIDIUM 33 DEB          
1 38469U 97051ZW  24303.16206087  .00339335  00000+0  44098-1 0  9995
2 38469  86.2564 257.3009 0082062  30.7001 329.8980 14.76492212551860
IRIDIUM 33 DEB          
1 38474U 97051AAB 24301.95221965  .00010383  00000+0  28105-2 0  9999
2 38474  86.3508 188.5833 0028482  22.7665 337.4794 14.47400936804384
IRIDIUM 33 DEB          
1 38477U 97051AAE 24289.89004876  .00019560  00000+0  16218-1 0  9997
2 38477  86.4008 260.8539 0432275  15.2141 346.1542 13.52880402709405
IRIDIUM 33 DEB          
1 39777U 97051AAJ 24302.18437026  .00025162  00000+0  71355-2 0  9995
2 39777  85.9697  12.6878 0074176 120.4128 240.4430 14.43732214542317
IRIDIUM 33 DEB          
1 39778U 97051AAK 24303.50665003  .00015526  00000+0  40711-2 0  9996
2 39778  86.3837 220.0803 0007871 341.5514  18.5404 14.49139580547543
IRIDIUM 33 DEB          
1 39783U 97051AAQ 24300.70540750  .00107567  00000+0  18743-1 0  9998
2 39783  86.1519  97.2655 0037651 187.0880 189.9361 14.66951123546561
IRIDIUM 33 DEB          
1 40996U 97051ABJ 24303.44513130  .00047370  00000+0  76951-2 0  9993
2 40996  86.3693 188.4897 0015649  46.4657 127.1632 14.70802862564204
IRIDIUM 33 DEB          
1 40998U 97051ABL 24275.66023326  .00007414  00000+0  22455-2 0  9995
2 40998  86.3827 239.8534 0010774  83.6499  40.7976 14.42155010  8024
IRIDIUM 33 DEB          
1 46435U 97051ABN 24286.51643288  .00093600  00000+0  36669-1 0  9991
2 46435  86.2832  14.8708 0248716 202.1831 176.1390 14.13402595648140
IRIDIUM 33 DEB          
1 46734U 97051ABR 24292.47984109  .00009908  00000+0  32563-2 0  9993
2 46734  86.2734 186.7242 0040863 276.6500 263.5772 14.37711795569628
IRIDIUM 33 DEB          
1 46965U 97051ABX 24303.39589207  .00011260  00000+0  25705-2 0  9997
2 46965  86.3428 161.5702 0018763 274.5826 259.1754 14.55583052563021
IRIDIUM 33 DEB          
1 46971U 97051ACD 24292.41449424  .00033908  00000+0  52435-2 0  9993
2 46971  86.3419 166.5714 0013715 349.3073 184.3574 14.73046924667995
IRIDIUM 33 DEB          
1 46972U 97051ACE 24281.61331312  .00012723  00000+0  34643-2 0  9993
2 46972  86.3918 224.4394 0012545  99.3719  24.3382 14.47316702714142
IRIDIUM 33 DEB          
1 46974U 97051ACG 24303.22066413  .00032380  00000+0  11240-1 0  9992
2 46974  86.3019 282.1963 0116181  89.6039 271.8467 14.31629494516193
IRIDIUM 33 DEB          
1 46979U 97051ACM 24298.54478579  .00046205  00000+0  96268-2 0  9990
2 46979  86.3485 235.8808 0041082 232.1523 127.5967 14.59203899293278
